{
    "links": {
        "self": "http://www.neowsapp.com/rest/v1/neo/3698560?api_key=iIulBulltgU6a56xZRHN4H3l9WmuAYTsLGpBGhQ2"
    },
    "id": "3698560",
    "neo_reference_id": "3698560",
    "name": "(2014 HH199)",
    "designation": "2014 HH199",
    "nasa_jpl_url": "http://ssd.jpl.nasa.gov/sbdb.cgi?sstr=3698560",
    "absolute_magnitude_h": 26.9,
    "estimated_diameter": {
        "kilometers": {
            "estimated_diameter_min": 0.0110803882,
            "estimated_diameter_max": 0.0247765013
        },
        "meters": {
            "estimated_diameter_min": 11.0803882126,
            "estimated_diameter_max": 24.7765012606
        },
        "miles": {
            "estimated_diameter_min": 0.0068850319,
            "estimated_diameter_max": 0.0153953994
        },
        "feet": {
            "estimated_diameter_min": 36.3529808636,
            "estimated_diameter_max": 81.2877363957
        }
    },
    "is_potentially_hazardous_asteroid": false,
    "close_approach_data": [
        {
            "close_approach_date": "2014-05-06",
            "close_approach_date_full": "2014-May-06 07:09",
            "epoch_date_close_approach": 1399360140000,
            "relative_velocity": {
                "kilometers_per_second": "6.8044986637",
                "kilometers_per_hour": "24496.1951892344",
                "miles_per_hour": "15220.9830607774"
            },
            "miss_distance": {
                "astronomical": "0.1127300509",
                "lunar": "43.8519898001",
                "kilometers": "16864175.499631583",
                "miles": "10478912.7418305254"
            },
            "orbiting_body": "Earth"
        }
    ],
    "orbital_data": {
        "orbit_id": "3",
        "orbit_determination_date": "2017-04-06 08:40:43",
        "first_observation_date": "2014-04-29",
        "last_observation_date": "2014-05-02",
        "data_arc_in_days": 3,
        "observations_used": 18,
        "orbit_uncertainty": "9",
        "minimum_orbit_intersection": ".112681",
        "jupiter_tisserand_invariant": "4.406",
        "epoch_osculation": "2456778.5",
        "eccentricity": ".2729090038990195",
        "semi_major_axis": "1.537888111126632",
        "inclination": "12.043458068025",
        "ascending_node_longitude": "228.2399029955307",
        "orbital_period": "696.6033139956447",
        "perihelion_distance": "1.118184598610918",
        "perihelion_argument": "348.4937374720181",
        "aphelion_distance": "1.957591623642345",
        "perihelion_time": "2456774.777084043790",
        "mean_anomaly": "1.92397842115919",
        "mean_motion": ".516793407046942",
        "equinox": "J2000",
        "orbit_class": {
            "orbit_class_type": "AMO",
            "orbit_class_description": "Near-Earth asteroid orbits similar to that of 1221 Amor",
            "orbit_class_range": "1.017 AU < q (perihelion) < 1.3 AU"
        }
    },
    "is_sentry_object": false
}